{
    "links": {
        "self": "http://www.neowsapp.com/rest/v1/neo/3726710?api_key=iIulBulltgU6a56xZRHN4H3l9WmuAYTsLGpBGhQ2"
    },
    "id": "3726710",
    "neo_reference_id": "3726710",
    "name": "(2015 RC)",
    "designation": "2015 RC",
    "nasa_jpl_url": "http://ssd.jpl.nasa.gov/sbdb.cgi?sstr=3726710",
    "absolute_magnitude_h": 24.3,
    "estimated_diameter": {
        "kilometers": {
            "estimated_diameter_min": 0.0366906138,
            "estimated_diameter_max": 0.0820427065
        },
        "meters": {
            "estimated_diameter_min": 36.6906137531,
            "estimated_diameter_max": 82.0427064882
        },
        "miles": {
            "estimated_diameter_min": 0.0227984834,
            "estimated_diameter_max": 0.0509789586
        },
        "feet": {
            "estimated_diameter_min": 120.3760332259,
            "estimated_diameter_max": 269.1689931548
        }
    },
    "is_potentially_hazardous_asteroid": false,
    "close_approach_data": [
        {
            "close_approach_date": "2015-09-08",
            "close_approach_date_full": "2015-Sep-08 09:45",
            "epoch_date_close_approach": 1441705500000,
            "relative_velocity": {
                "kilometers_per_second": "19.4850295284",
                "kilometers_per_hour": "70146.106302123",
                "miles_per_hour": "43586.0625520053"
            },
            "miss_distance": {
                "astronomical": "0.0269230459",
                "lunar": "10.4730648551",
                "kilometers": "4027630.320552233",
                "miles": "2502653.4316094954"
            },
            "orbiting_body": "Earth"
        }
    ],
    "orbital_data": {
        "orbit_id": "5",
        "orbit_determination_date": "2017-04-06 08:32:14",
        "first_observation_date": "2015-09-06",
        "last_observation_date": "2015-09-12",
        "data_arc_in_days": 6,
        "observations_used": 122,
        "orbit_uncertainty": "7",
        "minimum_orbit_intersection": ".02588",
        "jupiter_tisserand_invariant": "3.131",
        "epoch_osculation": "2459000.5",
        "eccentricity": ".6218358148037819",
        "semi_major_axis": "2.37361128380605",
        "inclination": "27.45593635230209",
        "ascending_node_longitude": "163.036039512303",
        "orbital_period": "1335.711987761082",
        "perihelion_distance": ".897614777113064",
        "perihelion_argument": "229.8566098817332",
        "aphelion_distance": "3.849607790499036",
        "perihelion_time": "2458648.045225822954",
        "mean_anomaly": "94.99332181364849",
        "mean_motion": ".2695191802563899",
        "equinox": "J2000",
        "orbit_class": {
            "orbit_class_type": "APO",
            "orbit_class_description": "Near-Earth asteroid orbits which cross the Earth’s orbit similar to that of 1862 Apollo",
            "orbit_class_range": "a (semi-major axis) > 1.0 AU; q (perihelion) < 1.017 AU"
        }
    },
    "is_sentry_object": false
}